{
    "links": {
        "self": "http://www.neowsapp.com/rest/v1/neo/3763553?api_key=iIulBulltgU6a56xZRHN4H3l9WmuAYTsLGpBGhQ2"
    },
    "id": "3763553",
    "neo_reference_id": "3763553",
    "name": "(2016 VX3)",
    "designation": "2016 VX3",
    "nasa_jpl_url": "http://ssd.jpl.nasa.gov/sbdb.cgi?sstr=3763553",
    "absolute_magnitude_h": 20.6,
    "estimated_diameter": {
        "kilometers": {
            "estimated_diameter_min": 0.2016299194,
            "estimated_diameter_max": 0.4508582062
        },
        "meters": {
            "estimated_diameter_min": 201.6299194428,
            "estimated_diameter_max": 450.8582061718
        },
        "miles": {
            "estimated_diameter_min": 0.1252869847,
            "estimated_diameter_max": 0.2801502144
        },
        "feet": {
            "estimated_diameter_min": 661.5155049046,
            "estimated_diameter_max": 1479.1936371367
        }
    },
    "is_potentially_hazardous_asteroid": false,
    "close_approach_data": [
        {
            "close_approach_date": "2016-10-24",
            "close_approach_date_full": "2016-Oct-24 09:15",
            "epoch_date_close_approach": 1477300500000,
            "relative_velocity": {
                "kilometers_per_second": "22.7596087402",
                "kilometers_per_hour": "81934.5914647164",
                "miles_per_hour": "50910.9687909511"
            },
            "miss_distance": {
                "astronomical": "0.388123569",
                "lunar": "150.980068341",
                "kilometers": "58062459.21919803",
                "miles": "36078339.183991614"
            },
            "orbiting_body": "Earth"
        },
        {
            "close_approach_date": "2018-12-25",
            "close_approach_date_full": "2018-Dec-25 23:12",
            "epoch_date_close_approach": 1545779520000,
            "relative_velocity": {
                "kilometers_per_second": "20.0308199631",
                "kilometers_per_hour": "72110.9518672997",
                "miles_per_hour": "44806.9411755452"
            },
            "miss_distance": {
                "astronomical": "0.0591357238",
                "lunar": "23.0037965582",
                "kilometers": "8846578.321388306",
                "miles": "5497008.8692223828"
            },
            "orbiting_body": "Mars"
        }
    ],
    "orbital_data": {
        "orbit_id": "3",
        "orbit_determination_date": "2017-04-06 08:22:18",
        "first_observation_date": "2016-11-07",
        "last_observation_date": "2016-11-21",
        "data_arc_in_days": 14,
        "observations_used": 45,
        "orbit_uncertainty": "8",
        "minimum_orbit_intersection": ".379324",
        "jupiter_tisserand_invariant": "3.879",
        "epoch_osculation": "2457701.5",
        "eccentricity": ".2617254458223789",
        "semi_major_axis": "1.667297588343406",
        "inclination": "46.04130342852859",
        "ascending_node_longitude": "37.20532709810112",
        "orbital_period": "786.3540173247952",
        "perihelion_distance": "1.230923383715651",
        "perihelion_argument": "295.8422880971789",
        "aphelion_distance": "2.103671792971161",
        "perihelion_time": "2457606.312823419089",
        "mean_anomaly": "43.57755262153659",
        "mean_motion": ".4578090682676653",
        "equinox": "J2000",
        "orbit_class": {
            "orbit_class_type": "AMO",
            "orbit_class_description": "Near-Earth asteroid orbits similar to that of 1221 Amor",
            "orbit_class_range": "1.017 AU < q (perihelion) < 1.3 AU"
        }
    },
    "is_sentry_object": false
}